{
    "links": {
        "self": "http://www.neowsapp.com/rest/v1/neo/3638467?api_key=iIulBulltgU6a56xZRHN4H3l9WmuAYTsLGpBGhQ2"
    },
    "id": "3638467",
    "neo_reference_id": "3638467",
    "name": "(2013 JT28)",
    "designation": "2013 JT28",
    "nasa_jpl_url": "http://ssd.jpl.nasa.gov/sbdb.cgi?sstr=3638467",
    "absolute_magnitude_h": 26.7,
    "estimated_diameter": {
        "kilometers": {
            "estimated_diameter_min": 0.0121494041,
            "estimated_diameter_max": 0.0271668934
        },
        "meters": {
            "estimated_diameter_min": 12.14940408,
            "estimated_diameter_max": 27.1668934089
        },
        "miles": {
            "estimated_diameter_min": 0.0075492874,
            "estimated_diameter_max": 0.0168807197
        },
        "feet": {
            "estimated_diameter_min": 39.8602508817,
            "estimated_diameter_max": 89.1302305717
        }
    },
    "is_potentially_hazardous_asteroid": false,
    "close_approach_data": [
        {
            "close_approach_date": "2013-05-03",
            "close_approach_date_full": "2013-May-03 01:21",
            "epoch_date_close_approach": 1367544060000,
            "relative_velocity": {
                "kilometers_per_second": "6.1028434895",
                "kilometers_per_hour": "21970.2365620838",
                "miles_per_hour": "13651.4506015903"
            },
            "miss_distance": {
                "astronomical": "0.0302007773",
                "lunar": "11.7481023697",
                "kilometers": "4517971.956424351",
                "miles": "2807337.5957480038"
            },
            "orbiting_body": "Earth"
        }
    ],
    "orbital_data": {
        "orbit_id": "6",
        "orbit_determination_date": "2017-04-06 08:45:50",
        "first_observation_date": "2013-05-12",
        "last_observation_date": "2013-05-20",
        "data_arc_in_days": 8,
        "observations_used": 13,
        "orbit_uncertainty": "8",
        "minimum_orbit_intersection": ".0148948",
        "jupiter_tisserand_invariant": "4.004",
        "epoch_osculation": "2456425.5",
        "eccentricity": ".422920029621413",
        "semi_major_axis": "1.764676686115691",
        "inclination": ".9027360190224898",
        "ascending_node_longitude": "200.2814942414998",
        "orbital_period": "856.2412550487933",
        "perihelion_distance": "1.018359569751426",
        "perihelion_argument": "3.732978810689619",
        "aphelion_distance": "2.510993802479956",
        "perihelion_time": "2456399.965003494600",
        "mean_anomaly": "10.73599138997356",
        "mean_motion": ".4204422502154317",
        "equinox": "J2000",
        "orbit_class": {
            "orbit_class_type": "AMO",
            "orbit_class_description": "Near-Earth asteroid orbits similar to that of 1221 Amor",
            "orbit_class_range": "1.017 AU < q (perihelion) < 1.3 AU"
        }
    },
    "is_sentry_object": false
}